STARLINK-1523_new
1 16028C 20055B   21326.14446224 -.00000051  00000-0 -34293-5 0  3261
2 16028  53.0530 328.0942 0001711  57.4840 343.6898 15.06401786    14
STARLINK-1523_old
1 26028C 20055B   21325.16337909 -.00001508  00000-0 -10104-3 0  3251
2 26028  53.0528 332.4988 0001618  58.2651  59.5353 15.06392806    16
